CCSDS_OMM_VERS = 2.0
CREATION_DATE  = 
ORIGINATOR     = 

OBJECT_NAME    = STARLINK-35208
OBJECT_ID      = 2025-223A
CENTER_NAME    = EARTH
REF_FRAME      = TEME
TIME_SYSTEM    = UTC
MEAN_ELEMENT_THEORY = SGP/SGP4

EPOCH          = 2025-10-30T22:20:46.173408
MEAN_MOTION    = 15.39639384
ECCENTRICITY   = .00012424
INCLINATION    = 53.1605
RA_OF_ASC_NODE = 179.4002
ARG_OF_PERICENTER = 97.8257
MEAN_ANOMALY   = 262.2889

EPHEMERIS_TYPE = 0
CLASSIFICATION_TYPE = U
NORAD_CAT_ID   = 65854
ELEMENT_SET_NO = 999
REV_AT_EPOCH   = 430
BSTAR          = .16465904E-2
MEAN_MOTION_DOT = .66078E-3
MEAN_MOTION_DDOT = 0

CCSDS_OMM_VERS = 2.0
CREATION_DATE  = 
ORIGINATOR     = 

OBJECT_NAME    = STARLINK-35200
OBJECT_ID      = 2025-223B
CENTER_NAME    = EARTH
REF_FRAME      = TEME
TIME_SYSTEM    = UTC
MEAN_ELEMENT_THEORY = SGP/SGP4

EPOCH          = 2025-10-30T22:00:01.999584
MEAN_MOTION    = 15.39580126
ECCENTRICITY   = .00012026
INCLINATION    = 53.1591
RA_OF_ASC_NODE = 179.1109
ARG_OF_PERICENTER = 104.6289
MEAN_ANOMALY   = 355.9708

EPHEMERIS_TYPE = 0
CLASSIFICATION_TYPE = U
NORAD_CAT_ID   = 65855
ELEMENT_SET_NO = 999
REV_AT_EPOCH   = 560
BSTAR          = .53170559E-3
MEAN_MOTION_DOT = .20899E-3
MEAN_MOTION_DDOT = 0

CCSDS_OMM_VERS = 2.0
CREATION_DATE  = 
ORIGINATOR     = 

OBJECT_NAME    = STARLINK-35459
OBJECT_ID      = 2025-223C
CENTER_NAME    = EARTH
REF_FRAME      = TEME
TIME_SYSTEM    = UTC
MEAN_ELEMENT_THEORY = SGP/SGP4

EPOCH          = 2025-10-30T22:00:01.999584
MEAN_MOTION    = 15.39592407
ECCENTRICITY   = .00010575
INCLINATION    = 53.1609
RA_OF_ASC_NODE = 179.3144
ARG_OF_PERICENTER = 82.8606
MEAN_ANOMALY   = 274.6487

EPHEMERIS_TYPE = 0
CLASSIFICATION_TYPE = U
NORAD_CAT_ID   = 65856
ELEMENT_SET_NO = 999
REV_AT_EPOCH   = 560
BSTAR          = .74794818E-3
MEAN_MOTION_DOT = .29607E-3
MEAN_MOTION_DDOT = 0

CCSDS_OMM_VERS = 2.0
CREATION_DATE  = 
ORIGINATOR     = 

OBJECT_NAME    = STARLINK-35489
OBJECT_ID      = 2025-223D
CENTER_NAME    = EARTH
REF_FRAME      = TEME
TIME_SYSTEM    = UTC
MEAN_ELEMENT_THEORY = SGP/SGP4

EPOCH          = 2025-10-30T21:22:44.137632
MEAN_MOTION    = 15.49120872
ECCENTRICITY   = .00018656
INCLINATION    = 53.1600
RA_OF_ASC_NODE = 179.1459
ARG_OF_PERICENTER = 16.7508
MEAN_ANOMALY   = 343.3562

EPHEMERIS_TYPE = 0
CLASSIFICATION_TYPE = U
NORAD_CAT_ID   = 65857
ELEMENT_SET_NO = 999
REV_AT_EPOCH   = 430
BSTAR          = -.90327243E-3
MEAN_MOTION_DOT = -.50037E-3
MEAN_MOTION_DDOT = 0

CCSDS_OMM_VERS = 2.0
CREATION_DATE  = 
ORIGINATOR     = 

OBJECT_NAME    = STARLINK-35199
OBJECT_ID      = 2025-223E
CENTER_NAME    = EARTH
REF_FRAME      = TEME
TIME_SYSTEM    = UTC
MEAN_ELEMENT_THEORY = SGP/SGP4

EPOCH          = 2025-10-30T22:00:01.999584
MEAN_MOTION    = 15.39597339
ECCENTRICITY   = .00011548
INCLINATION    = 53.1604
RA_OF_ASC_NODE = 179.2121
ARG_OF_PERICENTER = 104.9308
MEAN_ANOMALY   = 304.0788

EPHEMERIS_TYPE = 0
CLASSIFICATION_TYPE = U
NORAD_CAT_ID   = 65858
ELEMENT_SET_NO = 999
REV_AT_EPOCH   = 560
BSTAR          = .68918501E-3
MEAN_MOTION_DOT = .27245E-3
MEAN_MOTION_DDOT = 0

CCSDS_OMM_VERS = 2.0
CREATION_DATE  = 
ORIGINATOR     = 

OBJECT_NAME    = STARLINK-35408
OBJECT_ID      = 2025-223F
CENTER_NAME    = EARTH
REF_FRAME      = TEME
TIME_SYSTEM    = UTC
MEAN_ELEMENT_THEORY = SGP/SGP4

EPOCH          = 2025-10-30T20:40:36.421824
MEAN_MOTION    = 15.39626647
ECCENTRICITY   = .00012665
INCLINATION    = 53.1609
RA_OF_ASC_NODE = 179.6760
ARG_OF_PERICENTER = 67.9022
MEAN_ANOMALY   = 292.2118

EPHEMERIS_TYPE = 0
CLASSIFICATION_TYPE = U
NORAD_CAT_ID   = 65859
ELEMENT_SET_NO = 999
REV_AT_EPOCH   = 429
BSTAR          = .15188455E-2
MEAN_MOTION_DOT = .60853E-3
MEAN_MOTION_DDOT = 0

CCSDS_OMM_VERS = 2.0
CREATION_DATE  = 
ORIGINATOR     = 

OBJECT_NAME    = STARLINK-35303
OBJECT_ID      = 2025-223G
CENTER_NAME    = EARTH
REF_FRAME      = TEME
TIME_SYSTEM    = UTC
MEAN_ELEMENT_THEORY = SGP/SGP4

EPOCH          = 2025-10-30T22:00:01.999584
MEAN_MOTION    = 15.39589833
ECCENTRICITY   = .0001277
INCLINATION    = 53.1608
RA_OF_ASC_NODE = 179.2637
ARG_OF_PERICENTER = 89.5476
MEAN_ANOMALY   = 293.7232

EPHEMERIS_TYPE = 0
CLASSIFICATION_TYPE = U
NORAD_CAT_ID   = 65860
ELEMENT_SET_NO = 999
REV_AT_EPOCH   = 560
BSTAR          = .69043702E-3
MEAN_MOTION_DOT = .27289E-3
MEAN_MOTION_DDOT = 0

CCSDS_OMM_VERS = 2.0
CREATION_DATE  = 
ORIGINATOR     = 

OBJECT_NAME    = STARLINK-35258
OBJECT_ID      = 2025-223H
CENTER_NAME    = EARTH
REF_FRAME      = TEME
TIME_SYSTEM    = UTC
MEAN_ELEMENT_THEORY = SGP/SGP4

EPOCH          = 2025-10-30T21:21:42.055776
MEAN_MOTION    = 15.49340575
ECCENTRICITY   = .00006131
INCLINATION    = 53.1595
RA_OF_ASC_NODE = 179.1407
ARG_OF_PERICENTER = 80.8937
MEAN_ANOMALY   = 279.2141

EPHEMERIS_TYPE = 0
CLASSIFICATION_TYPE = U
NORAD_CAT_ID   = 65861
ELEMENT_SET_NO = 999
REV_AT_EPOCH   = 430
BSTAR          = .18576995E-2
MEAN_MOTION_DOT = .104376E-2
MEAN_MOTION_DDOT = 0

CCSDS_OMM_VERS = 2.0
CREATION_DATE  = 
ORIGINATOR     = 

OBJECT_NAME    = STARLINK-35386
OBJECT_ID      = 2025-223J
CENTER_NAME    = EARTH
REF_FRAME      = TEME
TIME_SYSTEM    = UTC
MEAN_ELEMENT_THEORY = SGP/SGP4

EPOCH          = 2025-10-30T22:00:01.999584
MEAN_MOTION    = 15.39606709
ECCENTRICITY   = .00003116
INCLINATION    = 53.1599
RA_OF_ASC_NODE = 179.1600
ARG_OF_PERICENTER = 149.7484
MEAN_ANOMALY   = 284.9670

EPHEMERIS_TYPE = 0
CLASSIFICATION_TYPE = U
NORAD_CAT_ID   = 65862
ELEMENT_SET_NO = 999
REV_AT_EPOCH   = 560
BSTAR          = .99417678E-3
MEAN_MOTION_DOT = .39556E-3
MEAN_MOTION_DDOT = 0

CCSDS_OMM_VERS = 2.0
CREATION_DATE  = 
ORIGINATOR     = 

OBJECT_NAME    = STARLINK-35469
OBJECT_ID      = 2025-223K
CENTER_NAME    = EARTH
REF_FRAME      = TEME
TIME_SYSTEM    = UTC
MEAN_ELEMENT_THEORY = SGP/SGP4

EPOCH          = 2025-10-30T20:33:54.597024
MEAN_MOTION    = 15.39603771
ECCENTRICITY   = .00011633
INCLINATION    = 53.1613
RA_OF_ASC_NODE = 179.6464
ARG_OF_PERICENTER = 63.4369
MEAN_ANOMALY   = 296.6755

EPHEMERIS_TYPE = 0
CLASSIFICATION_TYPE = U
NORAD_CAT_ID   = 65863
ELEMENT_SET_NO = 999
REV_AT_EPOCH   = 429
BSTAR          = .12812572E-2
MEAN_MOTION_DOT = .51167E-3
MEAN_MOTION_DDOT = 0

CCSDS_OMM_VERS = 2.0
CREATION_DATE  = 
ORIGINATOR     = 

OBJECT_NAME    = STARLINK-35471
OBJECT_ID      = 2025-223L
CENTER_NAME    = EARTH
REF_FRAME      = TEME
TIME_SYSTEM    = UTC
MEAN_ELEMENT_THEORY = SGP/SGP4

EPOCH          = 2025-10-30T22:00:01.999584
MEAN_MOTION    = 15.39897540
ECCENTRICITY   = .00006992
INCLINATION    = 53.1593
RA_OF_ASC_NODE = 179.0578
ARG_OF_PERICENTER = 99.6304
MEAN_ANOMALY   = 26.5331

EPHEMERIS_TYPE = 0
CLASSIFICATION_TYPE = U
NORAD_CAT_ID   = 65864
ELEMENT_SET_NO = 999
REV_AT_EPOCH   = 560
BSTAR          = -.12314327E-1
MEAN_MOTION_DOT = -.468121E-2
MEAN_MOTION_DDOT = 0

CCSDS_OMM_VERS = 2.0
CREATION_DATE  = 
ORIGINATOR     = 

OBJECT_NAME    = STARLINK-35475
OBJECT_ID      = 2025-223M
CENTER_NAME    = EARTH
REF_FRAME      = TEME
TIME_SYSTEM    = UTC
MEAN_ELEMENT_THEORY = SGP/SGP4

EPOCH          = 2025-10-30T22:00:01.999584
MEAN_MOTION    = 15.43425767
ECCENTRICITY   = .00012649
INCLINATION    = 53.1595
RA_OF_ASC_NODE = 179.0174
ARG_OF_PERICENTER = 80.0310
MEAN_ANOMALY   = 66.2686

EPHEMERIS_TYPE = 0
CLASSIFICATION_TYPE = U
NORAD_CAT_ID   = 65865
ELEMENT_SET_NO = 999
REV_AT_EPOCH   = 560
BSTAR          = -.51333996E-1
MEAN_MOTION_DOT = -.2069548E-1
MEAN_MOTION_DDOT = 0

