STARLINK-35208          
1 65854U 25223A   25303.93108997  .00066078  00000+0  16466-2 0  9992
2 65854  53.1605 179.4002 0001242  97.8257 262.2889 15.39639384  4305
STARLINK-35200          
1 65855U 25223B   25303.91668981  .00020899  00000+0  53171-3 0  9991
2 65855  53.1591 179.1109 0001202 104.6289 355.9708 15.39580126  5606
STARLINK-35459          
1 65856U 25223C   25303.91668981  .00029607  00000+0  74795-3 0  9993
2 65856  53.1609 179.3144 0001057  82.8606 274.6487 15.39592407  5602
STARLINK-35489          
1 65857U 25223D   25303.89078863 -.00050037  00000+0 -90327-3 0  9997
2 65857  53.1600 179.1459 0001865  16.7508 343.3562 15.49120872  4303
STARLINK-35199          
1 65858U 25223E   25303.91668981  .00027245  00000+0  68919-3 0  9992
2 65858  53.1604 179.2121 0001154 104.9308 304.0788 15.39597339  5607
STARLINK-35408          
1 65859U 25223F   25303.86153266  .00060853  00000+0  15188-2 0  9993
2 65859  53.1609 179.6760 0001266  67.9022 292.2118 15.39626647  4295
STARLINK-35303          
1 65860U 25223G   25303.91668981  .00027289  00000+0  69044-3 0  9993
2 65860  53.1608 179.2637 0001277  89.5476 293.7232 15.39589833  5604
STARLINK-35258          
1 65861U 25223H   25303.89007009  .00104376  00000+0  18577-2 0  9996
2 65861  53.1595 179.1407 0000613  80.8937 279.2141 15.49340575  4306
STARLINK-35386          
1 65862U 25223J   25303.91668981  .00039556  00000+0  99418-3 0  9993
2 65862  53.1599 179.1600 0000311 149.7484 284.9670 15.39606709  5600
STARLINK-35469          
1 65863U 25223K   25303.85688191  .00051167  00000+0  12813-2 0  9997
2 65863  53.1613 179.6464 0001163  63.4369 296.6755 15.39603771  4295
STARLINK-35471          
1 65864U 25223L   25303.91668981 -.00468121  00000+0 -12314-1 0  9999
2 65864  53.1593 179.0578 0000699  99.6304  26.5331 15.39897540  5601
STARLINK-35475          
1 65865U 25223M   25303.91668981 -.02069548  00000+0 -51334-1 0  9997
2 65865  53.1595 179.0174 0001264  80.0310  66.2686 15.43425767  5603
